{"fetched_at":"2026-03-30T13:17:50Z","count":15418,"tles":[{"name":"STARLINK-4204","line1":"1 52854U 22062AA  26087.84288983  .00000677  00000+0  60614-4 0  9999","line2":"2 52854  53.2173 298.1363 0001322  97.5117 262.6025 15.08839953208810","category":"Starlink"}]}